     2.11           G: GLONASS NAV DATA                     RINEX VERSION / TYPE
teqc  2016Apr1      IGN                 20230609 17:12:03UTCPGM / RUN BY / DATE
    18                                                      LEAP SECONDS
Linux 2.4.21-27.ELsmp|Opteron|gcc|Linux x86_64|=+           COMMENT
teqc  2016Apr1      IGN                 20230609 17:12:03UTCCOMMENT
  2023     6     9   -2.793967723846D-09                    CORR TO SYSTEM TIME
                                                            END OF HEADER
15 23  6  9 15 45  0.0 8.873827755451D-05-0.000000000000D+00 5.580000000000D+04
   -6.399839355469D+03 1.444005966187D-01-0.000000000000D+00 0.000000000000D+00
   -1.783101416016D+04-2.333928108215D+00 0.000000000000D+00 0.000000000000D+00
    1.709882226562D+04-2.383465766907D+00-1.862645149231D-09 0.000000000000D+00
14 23  6  9 15 45  0.0 2.474896609783D-05-0.000000000000D+00 5.580000000000D+04
    1.787513183594D+03-1.133956909180D-01-9.313225746155D-10 0.000000000000D+00
   -2.539631787109D+04-2.017612457275D-01 9.313225746155D-10-7.000000000000D+00
    1.401081054688D+03-3.551425933838D+00 0.000000000000D+00 0.000000000000D+00
16 23  6  9 15 45  0.0 1.545157283545D-05 9.094947017729D-13 5.580000000000D+04
   -1.093894335938D+04 3.099269866943D-01 9.313225746155D-10 0.000000000000D+00
    2.514082031250D+02-3.138521194458D+00-0.000000000000D+00-1.000000000000D+00
    2.305514306641D+04 1.780347824097D-01-2.793967723846D-09 0.000000000000D+00
18 23  6  9 15 45  0.0 8.574593812227D-05 9.094947017729D-13 5.742000000000D+04
   -1.825566015625D+04 4.585666656494D-01-2.793967723846D-09 0.000000000000D+00
   -1.692263818359D+04 6.338243484497D-01-0.000000000000D+00-3.000000000000D+00
    5.458296386719D+03 3.507925987244D+00-1.862645149231D-09 0.000000000000D+00
21 23  6  9 15 45  0.0-1.393910497427D-05-2.728484105319D-12 5.580000000000D+04
    7.513950195312D+03-1.923523902893D+00 0.000000000000D+00 0.000000000000D+00
    1.603451074219D+04-1.628354072571D+00 0.000000000000D+00 4.000000000000D+00
   -1.835572802734D+04-2.212900161743D+00 1.862645149231D-09 0.000000000000D+00
11 23  6  9 15 45  0.0-7.545296102762D-05-9.094947017729D-12 5.580000000000D+04
    5.940680664062D+03-9.141921997070D-02 0.000000000000D+00 0.000000000000D+00
    1.877867919922D+04 2.222527503967D+00 0.000000000000D+00 0.000000000000D+00
   -1.620751464844D+04 2.537817955017D+00 1.862645149231D-09 0.000000000000D+00
10 23  6  9 15 45  0.0-9.399000555277D-05-0.000000000000D+00 5.580000000000D+04
   -2.623197753906D+03 1.504201889038D-01 9.313225746155D-10 0.000000000000D+00
    2.532796826172D+04-6.340694427490D-02-0.000000000000D+00-7.000000000000D+00
    5.573906250000D+02 3.568144798279D+00-0.000000000000D+00 0.000000000000D+00
12 23  6  9 15 45  0.0 2.799462527037D-05-0.000000000000D+00 5.601000000000D+04
    1.109803466797D+04-3.328189849854D-01-0.000000000000D+00 0.000000000000D+00
   -4.942138671875D+02 3.129696846008D+00 0.000000000000D+00-1.000000000000D+00
   -2.293447167969D+04-2.271022796631D-01 2.793967723846D-09 0.000000000000D+00
13 23  6  9 15 45  0.0-3.592576831579D-05-0.000000000000D+00 5.580000000000D+04
    9.518070800781D+03-3.100843429565D-01-9.313225746155D-10 0.000000000000D+00
   -1.697380810547D+04 2.237759590149D+00 9.313225746155D-10-2.000000000000D+00
   -1.650120751953D+04-2.482319831848D+00 2.793967723846D-09 0.000000000000D+00
 3 23  6  9 15 45  0.0 7.937382906675D-05 0.000000000000D+00 5.604000000000D+04
    5.948229980469D+03 2.595189094543D+00-9.313225746155D-10 0.000000000000D+00
   -1.336397607422D+04-1.222860336304D+00 9.313225746155D-10 5.000000000000D+00
   -2.086305810547D+04 1.514541625977D+00 2.793967723846D-09 0.000000000000D+00
 6 23  6  9 15 45  0.0-1.138988882303D-04-1.818989403546D-12 5.580000000000D+04
   -1.924328564453D+04-1.077595710754D+00-0.000000000000D+00 0.000000000000D+00
    1.397984179688D+04 6.669921875000D-01-9.313225746155D-10-4.000000000000D+00
    9.187161132812D+03-3.271071434021D+00-2.793967723846D-09 0.000000000000D+00
19 23  6  9 15 45  0.0-2.356730401516D-04-9.094947017729D-13 5.727000000000D+04
   -2.076265234375D+04-1.197850227356D+00-4.656612873077D-09 0.000000000000D+00
   -1.106879199219D+04-6.675491333008D-01-9.313225746155D-10 3.000000000000D+00
   -9.863862792969D+03 3.272505760193D+00-9.313225746155D-10 0.000000000000D+00
 9 23  6  9 15 45  0.0 1.248875632882D-04 2.728484105319D-12 5.730000000000D+04
   -8.968436035156D+03 2.517471313477D-01 9.313225746155D-10 0.000000000000D+00
    1.866542041016D+04-2.027248382568D+00-9.313225746155D-10-2.000000000000D+00
    1.497100830078D+04 2.674247741699D+00-1.862645149231D-09 0.000000000000D+00
